STARLINK-30848          
1 58240U 23171L   26068.02064189 -.00001460  00000+0 -44759-4 0  9990
2 58240  43.0006 288.8677 0001815 274.3753  85.6891 15.26738956129636
YAOGAN-43 01G           
1 60464U 24148G   26068.44348481  .00010133  00000+0  35873-3 0  9993
2 60464  35.0006  62.0013 0007382 306.3543  53.6492 15.28332833 87004
